 Revised: July 31, 2013             Moon / (Earth)                          301

 GEOPHYSICAL DATA (updated 2018-Aug-15):
  Vol. mean radius, km  = 1737.53+-0.03    Mass, x10^22 kg       =    7.349
  Radius (gravity), km  = 1738.0           Surface emissivity    =    0.92
  Radius (IAU), km      = 1737.4           GM, km^3/s^2          = 4902.800066
  Density, g/cm^3       =    3.3437        GM 1-sigma, km^3/s^2  =  +-0.0001
  V(1,0)                =   +0.21          Surface accel., m/s^2 =    1.62
  Earth/Moon mass ratio = 81.3005690769    Farside crust. thick. = ~80 - 90 km
  Mean crustal density  = 2.97+-.07 g/cm^3 Nearside crust. thick.= 58+-8 km
  Heat flow, Apollo 15  = 3.1+-.6 mW/m^2   Mean angular diameter = 31'05.2"
  Heat flow, Apollo 17  = 2.2+-.5 mW/m^2   Sid. rot. rate, rad/s = 0.0000026617
  Geometric Albedo      = 0.12             Mean solar day        = 29.5306 d
  Obliquity to orbit    = 6.67 deg         Orbit period          = 27.321582 d
  Semi-major axis, a    = 384400 km        Eccentricity          = 0.05490
  Mean motion, rad/s    = 2.6616995x10^-6  Inclination           = 5.145 deg
  Apsidal period        = 3231.50 d        Nodal period          = 6798.38 d
                                 Perihelion  Aphelion    Mean
  Solar Constant (W/m^2)         1414+-7     1323+-7     1368+-7
  Maximum Planetary IR (W/m^2)   1314        1226        1268
  Minimum Planetary IR (W/m^2)      5.2         5.2         5.2
 *******************************************************************************

 Ephemeris / WWW_USER Thu Dec 26 12:15:37 2019 Pasadena, USA      / Horizons
*******************************************************************************
Target body name: Moon (301)                      {source: DE431mx}
Center body name: Earth (399)                     {source: DE431mx}
Center-site name: BODY CENTER
*******************************************************************************
Start time      : A.D. 2019-Dec-26 00:00:00.0000 TDB
Stop  time      : A.D. 2020-Jan-25 00:00:00.0000 TDB
Step-size       : 1440 minutes
*******************************************************************************
Center geodetic : 0.00000000,0.00000000,0.0000000 {E-lon(deg),Lat(deg),Alt(km)}
Center cylindric: 0.00000000,0.00000000,0.0000000 {E-lon(deg),Dxy(km),Dz(km)}
Center radii    : 6378.1 x 6378.1 x 6356.8 km     {Equator, meridian, pole}
Keplerian GM    : 8.9970113901998714E-10 au^3/d^2
Output units    : AU-D, deg, Julian Day Number (Tp)
Output type     : GEOMETRIC osculating elements
Output format   : 10
Reference frame : ICRF/J2000.0
Coordinate systm: Ecliptic and Mean Equinox of Reference Epoch
*******************************************************************************
JDTDB
   EC    QR   IN
   OM    W    Tp
   N     MA   TA
   A     AD   PR
*******************************************************************************
$$SOE
2458862.500000000 = A.D. 2020-Jan-14 00:00:00.0000 TDB
 EC= 4.597982581173368E-02 QR= 2.446274922086230E-03 IN= 5.262612415740568E+00
 OM= 9.811404157355987E+01 W = 5.533587239642053E+01 Tp=  2458862.336766809691
 N = 1.323580044447634E+01 MA= 2.160521931881878E+00 TA= 2.371226810059511E+00
 A = 2.564175253597397E-03 AD= 2.682075585108564E-03 PR= 2.719895948191315E+01
2458863.500000000 = A.D. 2020-Jan-15 00:00:00.0000 TDB
 EC= 4.233313904602325E-02 QR= 2.446017481165465E-03 IN= 5.261198637140449E+00
 OM= 9.808138617422743E+01 W = 5.409655287322509E+01 Tp=  2458862.247947814409
 N = 1.331386416824747E+01 MA= 1.666965272890891E+01 TA= 1.813515962002054E+01
 A = 2.554142344164308E-03 AD= 2.662267207163152E-03 PR= 2.703948271145594E+01
2458864.500000000 = A.D. 2020-Jan-16 00:00:00.0000 TDB
 EC= 3.932484317872641E-02 QR= 2.445815824003801E-03 IN= 5.260722640054117E+00
 OM= 9.805472501723600E+01 W = 5.289042432878954E+01 Tp=  2458862.160223462619
 N = 1.337830157829733E+01 MA= 3.130223614384415E+01 TA= 3.374520409223116E+01
 A = 2.545934290730103E-03 AD= 2.646052757456406E-03 PR= 2.690924538463107E+01
2458865.500000000 = A.D. 2020-Jan-17 00:00:00.0000 TDB
 EC= 3.726539464579618E-02 QR= 2.446476366251428E-03 IN= 5.260788856276952E+00
 OM= 9.803953811632847E+01 W = 5.241458174078841E+01 Tp=  2458862.122651103418
 N = 1.341590902619108E+01 MA= 4.531020554754419E+01 TA= 4.844716906016492E+01
 A = 2.541174226672089E-03 AD= 2.635872087092751E-03 PR= 2.683381344470907E+01
2458866.500000000 = A.D. 2020-Jan-18 00:00:00.0000 TDB
 EC= 3.614249148376827E-02 QR= 2.448931547880365E-03 IN= 5.260779318364245E+00
 OM= 9.803882038081380E+01 W = 5.348783735609037E+01 Tp=  2458862.192545013968
 N = 1.341918224182539E+01 MA= 5.780252345362683E+01 TA= 6.139124083005323E+01
 A = 2.540760979960893E-03 AD= 2.632590412041420E-03 PR= 2.682726812353281E+01
2458867.500000000 = A.D. 2020-Jan-19 00:00:00.0000 TDB
 EC= 3.575310158335730E-02 QR= 2.453764549124192E-03 IN= 5.259988166344546E+00
 OM= 9.805208507782594E+01 W = 5.655268458111387E+01 Tp=  2458862.401378887706
 N = 1.338766424386856E+01 MA= 6.825862755614840E+01 TA= 7.212526475966500E+01
 A = 2.544747152574134E-03 AD= 2.635729756024076E-03 PR= 2.689042639868093E+01
2458868.500000000 = A.D. 2020-Jan-20 00:00:00.0000 TDB
 EC= 3.589903758954714E-02 QR= 2.460749629863974E-03 IN= 5.257785262711844E+00
 OM= 9.807522092669700E+01 W = 6.143259594641875E+01 Tp=  2458862.738524109591
 N = 1.332767517490572E+01 MA= 7.678707919254755E+01 TA= 8.083002796886977E+01
 A = 2.552377526635373E-03 AD= 2.644005423406772E-03 PR= 2.701146263512134E+01
2458869.500000000 = A.D. 2020-Jan-21 00:00:00.0000 TDB
 EC= 3.647403290531543E-02 QR= 2.468800608463687E-03 IN= 5.253765142559180E+00
 OM= 9.810122688108494E+01 W = 6.743332577727831E+01 Tp=  2458863.157892081887
 N = 1.325067124422591E+01 MA= 8.403718701859862E+01 TA= 8.821027359767207E+01
 A = 2.562256433947338E-03 AD= 2.655712259430989E-03 PR= 2.716843496942639E+01
2458870.500000000 = A.D. 2020-Jan-22 00:00:00.0000 TDB
 EC= 3.743669033940869E-02 QR= 2.476301072381591E-03 IN= 5.247844881471395E+00
 OM= 9.812160620891204E+01 W = 7.361160815797429E+01 Tp=  2458863.595474216621
 N = 1.317075145391090E+01 MA= 9.093779300007256E+01 TA= 9.521987504618772E+01
 A = 2.572611118176484E-03 AD= 2.668921163971378E-03 PR= 2.733329235311796E+01
2458871.500000000 = A.D. 2020-Jan-23 00:00:00.0000 TDB
 EC= 3.877035444277754E-02 QR= 2.481523164624186E-03 IN= 5.240291479484459E+00
 OM= 9.812806680398896E+01 W = 7.906761963023826E+01 Tp=  2458863.989197151735
 N = 1.310192176841421E+01 MA= 9.840595133390464E+01 TA= 1.027658448656530E+02
 A = 2.581613224367058E-03 AD= 2.681703284109931E-03 PR= 2.747688517480536E+01
2458872.500000000 = A.D. 2020-Jan-24 00:00:00.0000 TDB
 EC= 4.049243861358222E-02 QR= 2.482924687944262E-03 IN= 5.231678099150137E+00
 OM= 9.811416061035615E+01 W = 8.317772235466028E+01 Tp=  2458864.295937197749
 N = 1.305566656087441E+01 MA= 1.071095083886402E+02 TA= 1.114749235852241E+02
 A = 2.587707265544232E-03 AD= 2.692489843144203E-03 PR= 2.757423363421813E+01
2458873.500000000 = A.D. 2020-Jan-25 00:00:00.0000 TDB
 EC= 4.268316656135421E-02 QR= 2.479338729458535E-03 IN= 5.222782899759301E+00
 OM= 9.807656331903335E+01 W = 8.572002240956147E+01 Tp=  2458864.501562275924
 N = 1.303921703677979E+01 MA= 1.173325824758042E+02 TA= 1.215698009131386E+02
 A = 2.589883143026791E-03 AD= 2.700427556595047E-03 PR= 2.760901969685343E+01
